******** Week 376 almanac for PRN-01 ********
ID:                         01
Health:                     000
Eccentricity:               0.1794815063E-002
Time of Applicability(s):  589824.0000
Orbital Inclination(rad):   0.9570805741
Rate of Right Ascen(r/s):  -0.8194627053E-008
SQRT(A)  (m 1/2):           5153.553711
Right Ascen at Week(rad):   0.1127516700E+001
Argument of Perigee(rad):   0.206096461
Mean Anom(rad):            -0.6351264693E-002
Af0(s):                     0.2365112305E-003
Af1(s/s):                  -0.1091393642E-010
week:                        376

******** Week 376 almanac for PRN-02 ********
ID:                         02
Health:                     000
Eccentricity:               0.1686668396E-001
Time of Applicability(s):  589824.0000
Orbital Inclination(rad):   0.9621618855
Rate of Right Ascen(r/s):  -0.8057478483E-008
SQRT(A)  (m 1/2):           5153.688477
Right Ascen at Week(rad):   0.9654577720E+000
Argument of Perigee(rad):  -0.747366226
Mean Anom(rad):             0.1440406087E+001
Af0(s):                     0.1268386841E-003
Af1(s/s):                   0.7275957614E-011
week:                        376

******** Week 376 almanac for PRN-03 ********
ID:                         03
Health:                     000
Eccentricity:               0.6968021393E-002
Time of Applicability(s):  589824.0000
Orbital Inclination(rad):   0.9946031823
Rate of Right Ascen(r/s):  -0.7646032774E-008
SQRT(A)  (m 1/2):           5153.526855
Right Ascen at Week(rad):   0.2119345759E+001
Argument of Perigee(rad):   1.250537765
Mean Anom(rad):            -0.2058402605E+001
Af0(s):                     0.4005432129E-003
Af1(s/s):                  -0.1818989404E-010
week:                        376

******** Week 376 almanac for PRN-04 ********
ID:                         04
Health:                     000
Eccentricity:               0.3790378571E-002
Time of Applicability(s):  589824.0000
Orbital Inclination(rad):   0.9723484767
Rate of Right Ascen(r/s):  -0.7440309919E-008
SQRT(A)  (m 1/2):           5153.644531
Right Ascen at Week(rad):  -0.3095493834E+001
Argument of Perigee(rad):  -2.891716696
Mean Anom(rad):             0.8987355999E+000
Af0(s):                     0.6103515625E-004
Af1(s/s):                   0.0000000000E+000
week:                        376

******** Week 376 almanac for PRN-05 ********
ID:                         05
Health:                     000
Eccentricity:               0.5628585815E-002
Time of Applicability(s):  589824.0000
Orbital Inclination(rad):   0.9809950949
Rate of Right Ascen(r/s):  -0.7806039439E-008
SQRT(A)  (m 1/2):           5153.719238
Right Ascen at Week(rad):   0.2058044951E+001
Argument of Perigee(rad):   1.464227730
Mean Anom(rad):             0.1473311398E+001
Af0(s):                    -0.2346038818E-003
Af1(s/s):                   0.0000000000E+000
week:                        376

******** Week 376 almanac for PRN-06 ********
ID:                         06
Health:                     000
Eccentricity:               0.3688335419E-002
Time of Applicability(s):  589824.0000
Orbital Inclination(rad):   0.9858666823
Rate of Right Ascen(r/s):  -0.7897471819E-008
SQRT(A)  (m 1/2):           5153.662598
Right Ascen at Week(rad):   0.1081309274E+001
Argument of Perigee(rad):  -0.535257804
Mean Anom(rad):            -0.7823882504E+000
Af0(s):                    -0.5836486816E-003
Af1(s/s):                   0.7275957614E-011
week:                        376

******** Week 376 almanac for PRN-07 ********
ID:                         07
Health:                     000
Eccentricity:               0.2091169357E-001
Time of Applicability(s):  589824.0000
Orbital Inclination(rad):   0.9508787377
Rate of Right Ascen(r/s):  -0.7897471819E-008
SQRT(A)  (m 1/2):           5153.529297
Right Ascen at Week(rad):  -0.2088186775E+001
Argument of Perigee(rad):  -1.959228275
Mean Anom(rad):            -0.1581792977E+001
Af0(s):                    -0.2002716064E-003
Af1(s/s):                  -0.3637978807E-011
week:                        376

******** Week 376 almanac for PRN-08 ********
ID:                         08
Health:                     000
Eccentricity:               0.1164340973E-001
Time of Applicability(s):  589824.0000
Orbital Inclination(rad):   0.9423879144
Rate of Right Ascen(r/s):  -0.7828897534E-008
SQRT(A)  (m 1/2):           5153.691895
Right Ascen at Week(rad):  -0.4338251965E-001
Argument of Perigee(rad):   0.543140053
Mean Anom(rad):             0.1168581396E+001
Af0(s):                     0.4119873047E-003
Af1(s/s):                  -0.7275957614E-011
week:                        376

******** Week 376 almanac for PRN-09 ********
ID:                         09
Health:                     000
Eccentricity:               0.3569602966E-002
Time of Applicability(s):  589824.0000
Orbital Inclination(rad):   0.9666200171
Rate of Right Ascen(r/s):  -0.7508884204E-008
SQRT(A)  (m 1/2):           5153.669434
Right Ascen at Week(rad):   0.3122696152E+001
Argument of Perigee(rad):   2.036577085
Mean Anom(rad):             0.1782017167E+001
Af0(s):                     0.7305145264E-003
Af1(s/s):                  -0.7275957614E-011
week:                        376

******** Week 376 almanac for PRN-10 ********
ID:                         10
Health:                     000
Eccentricity:               0.1106166840E-001
Time of Applicability(s):  589824.0000
Orbital Inclination(rad):   0.9941118291
Rate of Right Ascen(r/s):  -0.7668890869E-008
SQRT(A)  (m 1/2):           5153.610352
Right Ascen at Week(rad):   0.2116840682E+001
Argument of Perigee(rad):  -2.263887121
Mean Anom(rad):            -0.3037978169E+001
Af0(s):                    -0.5731582642E-003
Af1(s/s):                   0.3637978807E-011
week:                        376

******** Week 376 almanac for PRN-11 ********
ID:                         11
Health:                     000
Eccentricity:               0.2399444580E-002
Time of Applicability(s):  589824.0000
Orbital Inclination(rad):   0.9627551046
Rate of Right Ascen(r/s):  -0.8114623721E-008
SQRT(A)  (m 1/2):           5153.585449
Right Ascen at Week(rad):   0.1097520185E+001
Argument of Perigee(rad):  -2.360469488
Mean Anom(rad):             0.4530568814E+000
Af0(s):                    -0.2927780151E-003
Af1(s/s):                   0.1091393642E-010
week:                        376

******** Week 376 almanac for PRN-12 ********
ID:                         12
Health:                     000
Eccentricity:               0.8717536926E-002
Time of Applicability(s):  589824.0000
Orbital Inclination(rad):   0.9584527679
Rate of Right Ascen(r/s):  -0.7703178011E-008
SQRT(A)  (m 1/2):           5153.658203
Right Ascen at Week(rad):  -0.9692661340E+000
Argument of Perigee(rad):   1.585168783
Mean Anom(rad):            -0.2353824235E+001
Af0(s):                    -0.6065368652E-003
Af1(s/s):                   0.0000000000E+000
week:                        376

******** Week 376 almanac for PRN-13 ********
ID:                         13
Health:                     063
Eccentricity:               0.2279758453E-002
Time of Applicability(s):  589824.0000
Orbital Inclination(rad):   0.9588722157
Rate of Right Ascen(r/s):  -0.7737465154E-008
SQRT(A)  (m 1/2):           5153.548340
Right Ascen at Week(rad):  -0.1077808008E+001
Argument of Perigee(rad):   1.832991693
Mean Anom(rad):            -0.2524157522E+001
Af0(s):                     0.3862380981E-003
Af1(s/s):                   0.2182787284E-010
week:                        376

******** Week 376 almanac for PRN-14 ********
ID:                         14
Health:                     000
Eccentricity:               0.7294654846E-002
Time of Applicability(s):  589824.0000
Orbital Inclination(rad):   0.9417407662
Rate of Right Ascen(r/s):  -0.7920329914E-008
SQRT(A)  (m 1/2):           5153.596680
Right Ascen at Week(rad):  -0.1025770256E+001
Argument of Perigee(rad):  -2.688283729
Mean Anom(rad):            -0.2472242234E+001
Af0(s):                     0.7495880127E-003
Af1(s/s):                   0.0000000000E+000
week:                        376

******** Week 376 almanac for PRN-15 ********
ID:                         15
Health:                     000
Eccentricity:               0.1692199707E-001
Time of Applicability(s):  589824.0000
Orbital Inclination(rad):   0.9446589250
Rate of Right Ascen(r/s):  -0.7748894201E-008
SQRT(A)  (m 1/2):           5153.701172
Right Ascen at Week(rad):   0.2975918234E+001
Argument of Perigee(rad):   1.528325357
Mean Anom(rad):             0.1567311913E+000
Af0(s):                     0.4234313965E-003
Af1(s/s):                   0.3637978807E-011
week:                        376

******** Week 376 almanac for PRN-16 ********
ID:                         16
Health:                     000
Eccentricity:               0.1500654221E-001
Time of Applicability(s):  589824.0000
Orbital Inclination(rad):   0.9575419668
Rate of Right Ascen(r/s):  -0.7703178011E-008
SQRT(A)  (m 1/2):           5153.647461
Right Ascen at Week(rad):  -0.9524777329E+000
Argument of Perigee(rad):   0.935673977
Mean Anom(rad):             0.2236461597E+001
Af0(s):                     0.2889633179E-003
Af1(s/s):                   0.7275957614E-011
week:                        376

